{"fetched_at":"2026-07-18T17:29:57.623Z","source":"https://celestrak.org/NORAD/elements/gp.php?NAME=HULIANWANG&FORMAT=JSON","constellation":"guowang","records":[{"OBJECT_NAME":"HULIANWANG DIGUI-76","OBJECT_ID":"2025-187D","EPOCH":"2026-07-18T06:53:07.986336","CLASSIFICATION_TYPE":"U","MEAN_MOTION":13.29323892,"ECCENTRICITY":0.0000084,"INCLINATION":50.0012,"RA_OF_ASC_NODE":94.4558,"ARG_OF_PERICENTER":36.546,"MEAN_ANOMALY":323.5418,"EPHEMERIS_TYPE":0,"NORAD_CAT_ID":65308,"ELEMENT_SET_NO":999,"REV_AT_EPOCH":4383,"BSTAR":0.000071054799,"MEAN_MOTION_DOT":-9.1e-7,"MEAN_MOTION_DDOT":0},{"OBJECT_NAME":"HULIANWANG DIGUI-77","OBJECT_ID":"2025-187E","EPOCH":"2026-07-18T06:40:57.336960","CLASSIFICATION_TYPE":"U","MEAN_MOTION":13.29323832,"ECCENTRICITY":0.00001227,"INCLINATION":50.0047,"RA_OF_ASC_NODE":94.5005,"ARG_OF_PERICENTER":191.5477,"MEAN_ANOMALY":168.5393,"EPHEMERIS_TYPE":0,"NORAD_CAT_ID":65309,"ELEMENT_SET_NO":999,"REV_AT_EPOCH":4383,"BSTAR":0.000064756301,"MEAN_MOTION_DOT":-9.4e-7,"MEAN_MOTION_DDOT":0},{"OBJECT_NAME":"HULIANWANG DIGUI-78","OBJECT_ID":"2025-187F","EPOCH":"2026-07-18T05:40:58.707840","CLASSIFICATION_TYPE":"U","MEAN_MOTION":13.2932279,"ECCENTRICITY":0.00000765,"INCLINATION":50.0112,"RA_OF_ASC_NODE":94.4548,"ARG_OF_PERICENTER":339.2025,"MEAN_ANOMALY":20.8844,"EPHEMERIS_TYPE":0,"NORAD_CAT_ID":65310,"ELEMENT_SET_NO":999,"REV_AT_EPOCH":4383,"BSTAR":0.000061218532,"MEAN_MOTION_DOT":-9.6e-7,"MEAN_MOTION_DDOT":0},{"OBJECT_NAME":"HULIANWANG DIGUI-79","OBJECT_ID":"2025-187G","EPOCH":"2026-07-18T07:05:04.428096","CLASSIFICATION_TYPE":"U","MEAN_MOTION":13.29319632,"ECCENTRICITY":0.00001344,"INCLINATION":50.0042,"RA_OF_ASC_NODE":94.5745,"ARG_OF_PERICENTER":331.8268,"MEAN_ANOMALY":28.2597,"EPHEMERIS_TYPE":0,"NORAD_CAT_ID":65311,"ELEMENT_SET_NO":999,"REV_AT_EPOCH":4383,"BSTAR":0.000066914043,"MEAN_MOTION_DOT":-9.3e-7,"MEAN_MOTION_DDOT":0},{"OBJECT_NAME":"HULIANWANG DIGUI-80","OBJECT_ID":"2025-187H","EPOCH":"2026-07-18T06:28:57.287136","CLASSIFICATION_TYPE":"U","MEAN_MOTION":13.29322961,"ECCENTRICITY":0.0000119,"INCLINATION":50.0032,"RA_OF_ASC_NODE":94.4208,"ARG_OF_PERICENTER":189.6281,"MEAN_ANOMALY":170.4589,"EPHEMERIS_TYPE":0,"NORAD_CAT_ID":65312,"ELEMENT_SET_NO":999,"REV_AT_EPOCH":4383,"BSTAR":0.000060765963,"MEAN_MOTION_DOT":-9.6e-7,"MEAN_MOTION_DDOT":0},{"OBJECT_NAME":"HULIANWANG DIGUI-81","OBJECT_ID":"2025-187J","EPOCH":"2026-07-18T06:05:01.096224","CLASSIFICATION_TYPE":"U","MEAN_MOTION":13.29319717,"ECCENTRICITY":0.00000802,"INCLINATION":50.0072,"RA_OF_ASC_NODE":94.438,"ARG_OF_PERICENTER":329.7386,"MEAN_ANOMALY":30.3482,"EPHEMERIS_TYPE":0,"NORAD_CAT_ID":65313,"ELEMENT_SET_NO":999,"REV_AT_EPOCH":4384,"BSTAR":0.000053752538,"MEAN_MOTION_DOT":-9.9e-7,"MEAN_MOTION_DDOT":0},{"OBJECT_NAME":"HULIANWANG DIGUI-82","OBJECT_ID":"2025-220A","EPOCH":"2026-07-18T01:31:31.112256","CLASSIFICATION_TYPE":"U","MEAN_MOTION":13.24409696,"ECCENTRICITY":0.00022025,"INCLINATION":86.4952,"RA_OF_ASC_NODE":33.4296,"ARG_OF_PERICENTER":99.8719,"MEAN_ANOMALY":260.2664,"EPHEMERIS_TYPE":0,"NORAD_CAT_ID":65817,"ELEMENT_SET_NO":999,"REV_AT_EPOCH":3900,"BSTAR":-0.000038994467,"MEAN_MOTION_DOT":-2e-8,"MEAN_MOTION_DDOT":0},{"OBJECT_NAME":"HULIANWANG DIGUI-83","OBJECT_ID":"2025-220B","EPOCH":"2026-07-18T01:20:44.027232","CLASSIFICATION_TYPE":"U","MEAN_MOTION":13.2440997,"ECCENTRICITY":0.00022266,"INCLINATION":86.4975,"RA_OF_ASC_NODE":33.4919,"ARG_OF_PERICENTER":99.1204,"MEAN_ANOMALY":261.0182,"EPHEMERIS_TYPE":0,"NORAD_CAT_ID":65818,"ELEMENT_SET_NO":999,"REV_AT_EPOCH":3900,"BSTAR":-0.000028909576,"MEAN_MOTION_DOT":2e-8,"MEAN_MOTION_DDOT":0},{"OBJECT_NAME":"HULIANWANG DIGUI-84","OBJECT_ID":"2025-220C","EPOCH":"2026-07-18T01:09:48.102624","CLASSIFICATION_TYPE":"U","MEAN_MOTION":13.24409773,"ECCENTRICITY":0.0002167,"INCLINATION":86.4912,"RA_OF_ASC_NODE":33.304,"ARG_OF_PERICENTER":99.2496,"MEAN_ANOMALY":260.8883,"EPHEMERIS_TYPE":0,"NORAD_CAT_ID":65819,"ELEMENT_SET_NO":999,"REV_AT_EPOCH":3900,"BSTAR":-0.000007203018,"MEAN_MOTION_DOT":1.2e-7,"MEAN_MOTION_DDOT":0},{"OBJECT_NAME":"HULIANWANG DIGUI-85","OBJECT_ID":"2025-220D","EPOCH":"2026-07-18T00:58:55.306560","CLASSIFICATION_TYPE":"U","MEAN_MOTION":13.2440865,"ECCENTRICITY":0.00020692,"INCLINATION":86.4968,"RA_OF_ASC_NODE":33.4798,"ARG_OF_PERICENTER":101.5778,"MEAN_ANOMALY":258.5588,"EPHEMERIS_TYPE":0,"NORAD_CAT_ID":65820,"ELEMENT_SET_NO":999,"REV_AT_EPOCH":3900,"BSTAR":0.000028405784,"MEAN_MOTION_DOT":2.7e-7,"MEAN_MOTION_DDOT":0},{"OBJECT_NAME":"HULIANWANG DIGUI-86","OBJECT_ID":"2025-220E","EPOCH":"2026-07-18T00:48:14.420736","CLASSIFICATION_TYPE":"U","MEAN_MOTION":13.24411483,"ECCENTRICITY":0.00020519,"INCLINATION":86.4952,"RA_OF_ASC_NODE":33.4133,"ARG_OF_PERICENTER":85.0586,"MEAN_ANOMALY":275.0783,"EPHEMERIS_TYPE":0,"NORAD_CAT_ID":65821,"ELEMENT_SET_NO":999,"REV_AT_EPOCH":3900,"BSTAR":0.000028113666,"MEAN_MOTION_DOT":2.7e-7,"MEAN_MOTION_DDOT":0},{"OBJECT_NAME":"HULIANWANG DIGUI-87","OBJECT_ID":"2025-231A","EPOCH":"2026-07-17T23:43:41.938176","CLASSIFICATION_TYPE":"U","MEAN_MOTION":13.29328214,"ECCENTRICITY":0.00004975,"INCLINATION":50.0008,"RA_OF_ASC_NODE":65.3609,"ARG_OF_PERICENTER":2.2917,"MEAN_ANOMALY":357.7957,"EPHEMERIS_TYPE":0,"NORAD_CAT_ID":65995,"ELEMENT_SET_NO":999,"REV_AT_EPOCH":3698,"BSTAR":0.000060091219,"MEAN_MOTION_DOT":-9.6e-7,"MEAN_MOTION_DDOT":0},{"OBJECT_NAME":"HULIANWANG DIGUI-88","OBJECT_ID":"2025-231B","EPOCH":"2026-07-18T07:08:48.430464","CLASSIFICATION_TYPE":"U","MEAN_MOTION":13.29323814,"ECCENTRICITY":0.00004918,"INCLINATION":49.9995,"RA_OF_ASC_NODE":64.2988,"ARG_OF_PERICENTER":345.9674,"MEAN_ANOMALY":14.1184,"EPHEMERIS_TYPE":0,"NORAD_CAT_ID":65996,"ELEMENT_SET_NO":999,"REV_AT_EPOCH":3702,"BSTAR":0.000048332716,"MEAN_MOTION_DOT":-0.00000102,"MEAN_MOTION_DDOT":0},{"OBJECT_NAME":"HULIANWANG DIGUI-89","OBJECT_ID":"2025-231C","EPOCH":"2026-07-17T23:31:38.552448","CLASSIFICATION_TYPE":"U","MEAN_MOTION":13.29328097,"ECCENTRICITY":0.00005446,"INCLINATION":49.997,"RA_OF_ASC_NODE":65.2423,"ARG_OF_PERICENTER":352.6852,"MEAN_ANOMALY":7.4012,"EPHEMERIS_TYPE":0,"NORAD_CAT_ID":65997,"ELEMENT_SET_NO":999,"REV_AT_EPOCH":3698,"BSTAR":0.000061448619,"MEAN_MOTION_DOT":-9.6e-7,"MEAN_MOTION_DDOT":0},{"OBJECT_NAME":"HULIANWANG DIGUI-90","OBJECT_ID":"2025-231D","EPOCH":"2026-07-18T01:07:58.596672","CLASSIFICATION_TYPE":"U","MEAN_MOTION":13.29326513,"ECCENTRICITY":0.00005328,"INCLINATION":50.0002,"RA_OF_ASC_NODE":64.9925,"ARG_OF_PERICENTER":347.8409,"MEAN_ANOMALY":12.245,"EPHEMERIS_TYPE":0,"NORAD_CAT_ID":65998,"ELEMENT_SET_NO":999,"REV_AT_EPOCH":3699,"BSTAR":0.000054833783,"MEAN_MOTION_DOT":-9.9e-7,"MEAN_MOTION_DDOT":0},{"OBJECT_NAME":"HULIANWANG DIGUI-91","OBJECT_ID":"2025-231E","EPOCH":"2026-07-18T00:55:56.419680","CLASSIFICATION_TYPE":"U","MEAN_MOTION":13.29327178,"ECCENTRICITY":0.00005116,"INCLINATION":50.0019,"RA_OF_ASC_NODE":64.992,"ARG_OF_PERICENTER":348.8827,"MEAN_ANOMALY":11.2034,"EPHEMERIS_TYPE":0,"NORAD_CAT_ID":65999,"ELEMENT_SET_NO":999,"REV_AT_EPOCH":3699,"BSTAR":0.000054734984,"MEAN_MOTION_DOT":-9.9e-7,"MEAN_MOTION_DDOT":0}]}
