HULIANWANG DIGUI-76     
1 65308U 25187D   26199.28689799 -.00000091  00000+0  71055-4 0  9992
2 65308  50.0012  94.4558 0000084  36.5460 323.5418 13.29323892 43839
HULIANWANG DIGUI-77     
1 65309U 25187E   26199.27844140 -.00000094  00000+0  64756-4 0  9998
2 65309  50.0047  94.5005 0000122 191.5477 168.5393 13.29323832 43832
HULIANWANG DIGUI-78     
1 65310U 25187F   26199.23679060 -.00000096  00000+0  61219-4 0  9996
2 65310  50.0112  94.4548 0000076 339.2025  20.8844 13.29322790 43839
HULIANWANG DIGUI-79     
1 65311U 25187G   26199.29519014 -.00000093  00000+0  66914-4 0  9999
2 65311  50.0042  94.5745 0000134 331.8268  28.2597 13.29319632 43832
HULIANWANG DIGUI-80     
1 65312U 25187H   26199.27010749 -.00000096  00000+0  60766-4 0  9991
2 65312  50.0032  94.4208 0000119 189.6281 170.4589 13.29322961 43832
HULIANWANG DIGUI-81     
1 65313U 25187J   26199.25348491 -.00000099  00000+0  53753-4 0  9999
2 65313  50.0072  94.4380 0000080 329.7386  30.3482 13.29319717 43840
HULIANWANG DIGUI-82     
1 65817U 25220A   26199.06355454 -.00000002  00000+0 -38994-4 0  9997
2 65817  86.4952  33.4296 0002202  99.8719 260.2664 13.24409696 39001
HULIANWANG DIGUI-83     
1 65818U 25220B   26199.05606513  .00000002  00000+0 -28910-4 0  9998
2 65818  86.4975  33.4919 0002226  99.1204 261.0182 13.24409970 39006
HULIANWANG DIGUI-84     
1 65819U 25220C   26199.04847341  .00000012  00000+0 -72030-5 0  9998
2 65819  86.4912  33.3040 0002167  99.2496 260.8883 13.24409773 39006
HULIANWANG DIGUI-85     
1 65820U 25220D   26199.04091790  .00000027  00000+0  28406-4 0  9991
2 65820  86.4968  33.4798 0002069 101.5778 258.5588 13.24408650 39000
HULIANWANG DIGUI-86     
1 65821U 25220E   26199.03350024  .00000027  00000+0  28114-4 0  9995
2 65821  86.4952  33.4133 0002051  85.0586 275.0783 13.24411483 39000
HULIANWANG DIGUI-87     
1 65995U 25231A   26198.98867984 -.00000096  00000+0  60091-4 0  9997
2 65995  50.0008  65.3609 0000497   2.2917 357.7957 13.29328214 36983
HULIANWANG DIGUI-88     
1 65996U 25231B   26199.29778276 -.00000102  00000+0  48333-4 0  9991
2 65996  49.9995  64.2988 0000491 345.9674  14.1184 13.29323814 37028
HULIANWANG DIGUI-89     
1 65997U 25231C   26198.98030732 -.00000096  00000+0  61449-4 0  9990
2 65997  49.9970  65.2423 0000544 352.6852   7.4012 13.29328097 36986
HULIANWANG DIGUI-90     
1 65998U 25231D   26199.04720598 -.00000099  00000+0  54834-4 0  9998
2 65998  50.0002  64.9925 0000532 347.8409  12.2450 13.29326513 36992
HULIANWANG DIGUI-91     
1 65999U 25231E   26199.03884745 -.00000099  00000+0  54735-4 0  9993
2 65999  50.0019  64.9920 0000511 348.8827  11.2034 13.29327178 36993
